start=new Date('2022-02-07T00:00:00.000Z').valueOf();
sats=[{"APOAPSIS":"548.330","EPHEMERIS_TYPE":"0","EPOCH":"2022-02-06T13:16:46.803936","TLE_LINE2":"2 47789  53.0543  90.0856 0001576  70.8400 289.2759 15.06391867 51984","OBJECT_TYPE":"PAYLOAD","ARG_OF_PERICENTER":"70.8400","PERIOD":"95.593","MEAN_MOTION_DDOT":"0.0000000000000","REV_AT_EPOCH":"5198","COUNTRY_CODE":"US","TLE_LINE1":"1 47789U 21018C   22037.55331949 -.00002940  00000-0 -17860-3 0  9992","ECCENTRICITY":"0.00015760","FILE":"3293555","MEAN_MOTION_DOT":"-0.00002940","SITE":"AFETR","OBJECT_NAME":"STARLINK-2315","RCS_SIZE":"LARGE","RA_OF_ASC_NODE":"90.0856","NORAD_CAT_ID":"47789","SEMIMAJOR_AXIS":"6925.373","GP_ID":"195412147","REF_FRAME":"TEME","CLASSIFICATION_TYPE":"U","PERIAPSIS":"546.147","TIME_SYSTEM":"UTC","MEAN_ANOMALY":"289.2759","ELEMENT_SET_NO":"999","OBJECT_ID":"2021-018C","MEAN_ELEMENT_THEORY":"SGP4","CENTER_NAME":"EARTH","DECAY_DATE":null,"LAUNCH_DATE":"2021-03-11","INCLINATION":"53.0543","BSTAR":"-0.00017860000000","MEAN_MOTION":"15.06391867"},{"OBJECT_TYPE":"PAYLOAD","APOAPSIS":"548.218","EPHEMERIS_TYPE":"0","TLE_LINE2":"2 47790  53.0555  80.1973 0001394  74.0274 286.0868 15.06387238 52122","EPOCH":"2022-02-06T12:40:57.193536","MEAN_MOTION_DDOT":"0.0000000000000","REV_AT_EPOCH":"5212","COUNTRY_CODE":"US","TLE_LINE1":"1 47790U 21018D   22037.52843974 -.00001748  00000-0 -98512-4 0  9996","ARG_OF_PERICENTER":"74.0274","PERIOD":"95.593","ECCENTRICITY":"0.00013940","RCS_SIZE":"LARGE","RA_OF_ASC_NODE":"80.1973","FILE":"3293555","MEAN_MOTION_DOT":"-0.00001748","SITE":"AFETR","OBJECT_NAME":"STARLINK-2319","NORAD_CAT_ID":"47790","SEMIMAJOR_AXIS":"6925.388","REF_FRAME":"TEME","GP_ID":"195410895","CLASSIFICATION_TYPE":"U","MEAN_ANOMALY":"286.0868","ELEMENT_SET_NO":"999","TIME_SYSTEM":"UTC","PERIAPSIS":"546.287","CENTER_NAME":"EARTH","OBJECT_ID":"2021-018D","MEAN_ELEMENT_THEORY":"SGP4","DECAY_DATE":null,"BSTAR":"-0.00009851200000","LAUNCH_DATE":"2021-03-11","INCLINATION":"53.0555","MEAN_MOTION":"15.06387238"},{"PERIOD":"95.593","ARG_OF_PERICENTER":"71.7882","COUNTRY_CODE":"US","TLE_LINE1":"1 47791U 21018E   22037.87953343 -.00003687  00000-0 -22885-3 0  9990","REV_AT_EPOCH":"5175","MEAN_MOTION_DDOT":"0.0000000000000","TLE_LINE2":"2 47791  53.0552 108.6237 0001419  71.7882 288.3261 15.06387432 51752","EPOCH":"2022-02-06T21:06:31.688352","EPHEMERIS_TYPE":"0","APOAPSIS":"548.235","OBJECT_TYPE":"PAYLOAD","OBJECT_NAME":"STARLINK-2322","SITE":"AFETR","MEAN_MOTION_DOT":"-0.00003687","FILE":"3293822","RA_OF_ASC_NODE":"108.6237","RCS_SIZE":"LARGE","ECCENTRICITY":"0.00014190","TIME_SYSTEM":"UTC","PERIAPSIS":"546.269","ELEMENT_SET_NO":"999","MEAN_ANOMALY":"288.3261","CLASSIFICATION_TYPE":"U","REF_FRAME":"TEME","GP_ID":"195442264","SEMIMAJOR_AXIS":"6925.387","NORAD_CAT_ID":"47791","MEAN_MOTION":"15.06387432","LAUNCH_DATE":"2021-03-11","BSTAR":"-0.00022885000000","INCLINATION":"53.0552","DECAY_DATE":null,"OBJECT_ID":"2021-018E","MEAN_ELEMENT_THEORY":"SGP4","CENTER_NAME":"EARTH"},{"FILE":"3293822","SITE":"AFETR","MEAN_MOTION_DOT":"-0.00004297","OBJECT_NAME":"STARLINK-2334","RCS_SIZE":"LARGE","RA_OF_ASC_NODE":"88.8566","ECCENTRICITY":"0.00016040","ARG_OF_PERICENTER":"54.4387","PERIOD":"95.594","MEAN_MOTION_DDOT":"0.0000000000000","REV_AT_EPOCH":"5202","TLE_LINE1":"1 47792U 21018F   22037.82608675 -.00004297  00000-0 -26992-3 0  9992","COUNTRY_CODE":"US","APOAPSIS":"548.396","EPHEMERIS_TYPE":"0","EPOCH":"2022-02-06T19:49:33.895200","TLE_LINE2":"2 47792  53.0541  88.8566 0001604  54.4387 305.6751 15.06376700 52023","OBJECT_TYPE":"PAYLOAD","DECAY_DATE":null,"LAUNCH_DATE":"2021-03-11","BSTAR":"-0.00026992000000","INCLINATION":"53.0541","MEAN_MOTION":"15.06376700","OBJECT_ID":"2021-018F","MEAN_ELEMENT_THEORY":"SGP4","CENTER_NAME":"EARTH","PERIAPSIS":"546.174","TIME_SYSTEM":"UTC","MEAN_ANOMALY":"305.6751","ELEMENT_SET_NO":"999","NORAD_CAT_ID":"47792","SEMIMAJOR_AXIS":"6925.420","REF_FRAME":"TEME","GP_ID":"195442514","CLASSIFICATION_TYPE":"U"},{"COUNTRY_CODE":"US","TLE_LINE1":"1 47793U 21018G   22037.84083224 -.00002106  00000-0 -12262-3 0  9994","REV_AT_EPOCH":"5201","MEAN_MOTION_DDOT":"0.0000000000000","ARG_OF_PERICENTER":"58.4325","PERIOD":"95.594","OBJECT_TYPE":"PAYLOAD","TLE_LINE2":"2 47793  53.0548  88.7880 0001787  58.4325 301.6838 15.06369008 52011","EPOCH":"2022-02-06T20:10:47.905536","EPHEMERIS_TYPE":"0","APOAPSIS":"548.546","RA_OF_ASC_NODE":"88.7880","RCS_SIZE":"LARGE","MEAN_MOTION_DOT":"-0.00002106","SITE":"AFETR","OBJECT_NAME":"STARLINK-2338","FILE":"3293822","ECCENTRICITY":"0.00017870","ELEMENT_SET_NO":"999","MEAN_ANOMALY":"301.6838","TIME_SYSTEM":"UTC","PERIAPSIS":"546.071","CLASSIFICATION_TYPE":"U","REF_FRAME":"TEME","GP_ID":"195443266","SEMIMAJOR_AXIS":"6925.444","NORAD_CAT_ID":"47793","MEAN_MOTION":"15.06369008","INCLINATION":"53.0548","LAUNCH_DATE":"2021-03-11","BSTAR":"-0.00012262000000","DECAY_DATE":null,"OBJECT_ID":"2021-018G","MEAN_ELEMENT_THEORY":"SGP4","CENTER_NAME":"EARTH"},{"DECAY_DATE":null,"MEAN_MOTION":"15.06377904","BSTAR":"-0.00010997000000","LAUNCH_DATE":"2021-03-11","INCLINATION":"53.0542","OBJECT_ID":"2021-018H","CENTER_NAME":"EARTH","MEAN_ELEMENT_THEORY":"SGP4","MEAN_ANOMALY":"297.3387","ELEMENT_SET_NO":"999","TIME_SYSTEM":"UTC","PERIAPSIS":"546.102","SEMIMAJOR_AXIS":"6925.416","NORAD_CAT_ID":"47794","CLASSIFICATION_TYPE":"U","GP_ID":"195444016","REF_FRAME":"TEME","RCS_SIZE":"LARGE","RA_OF_ASC_NODE":"88.7840","FILE":"3293822","SITE":"AFETR","MEAN_MOTION_DOT":"-0.00001918","OBJECT_NAME":"STARLINK-2341","ECCENTRICITY":"0.00017030","REV_AT_EPOCH":"5202","MEAN_MOTION_DDOT":"0.0000000000000","COUNTRY_CODE":"US","TLE_LINE1":"1 47794U 21018H   22037.84451351 -.00001918  00000-0 -10997-3 0  9998","PERIOD":"95.594","ARG_OF_PERICENTER":"62.7775","OBJECT_TYPE":"PAYLOAD","APOAPSIS":"548.461","EPOCH":"2022-02-06T20:16:05.967264","TLE_LINE2":"2 47794  53.0542  88.7840 0001703  62.7775 297.3387 15.06377904 52022","EPHEMERIS_TYPE":"0"},{"ELEMENT_SET_NO":"999","MEAN_ANOMALY":"285.7942","PERIAPSIS":"546.179","TIME_SYSTEM":"UTC","CLASSIFICATION_TYPE":"U","REF_FRAME":"TEME","GP_ID":"195442764","SEMIMAJOR_AXIS":"6925.510","NORAD_CAT_ID":"47795","MEAN_MOTION":"15.06347166","INCLINATION":"53.0549","LAUNCH_DATE":"2021-03-11","BSTAR":"-0.00069971000000","DECAY_DATE":null,"OBJECT_ID":"2021-018J","CENTER_NAME":"EARTH","MEAN_ELEMENT_THEORY":"SGP4","COUNTRY_CODE":"US","TLE_LINE1":"1 47795U 21018J   22037.83347310 -.00010673  00000-0 -69971-3 0  9991","REV_AT_EPOCH":"5207","MEAN_MOTION_DDOT":"0.0000000000000","PERIOD":"95.595","ARG_OF_PERICENTER":"74.3238","OBJECT_TYPE":"PAYLOAD","EPOCH":"2022-02-06T20:00:12.075840","TLE_LINE2":"2 47795  53.0549  88.8281 0001728  74.3238 285.7942 15.06347166 52070","EPHEMERIS_TYPE":"0","APOAPSIS":"548.572","RA_OF_ASC_NODE":"88.8281","RCS_SIZE":"LARGE","MEAN_MOTION_DOT":"-0.00010673","SITE":"AFETR","OBJECT_NAME":"STARLINK-2347","FILE":"3293822","ECCENTRICITY":"0.00017280"},{"ECCENTRICITY":"0.00018680","MEAN_MOTION_DOT":"-0.00000770","SITE":"AFETR","OBJECT_NAME":"STARLINK-2373","FILE":"3293822","RA_OF_ASC_NODE":"88.7631","RCS_SIZE":"LARGE","TLE_LINE2":"2 47796  53.0552  88.7631 0001868  58.9450 301.1722 15.06378488 52027","EPOCH":"2022-02-06T20:21:24.846336","EPHEMERIS_TYPE":"0","APOAPSIS":"548.573","OBJECT_TYPE":"PAYLOAD","ARG_OF_PERICENTER":"58.9450","PERIOD":"95.594","COUNTRY_CODE":"US","TLE_LINE1":"1 47796U 21018K   22037.84820424 -.00000770  00000-0 -32785-4 0  9996","REV_AT_EPOCH":"5202","MEAN_MOTION_DDOT":"0.0000000000000","CENTER_NAME":"EARTH","OBJECT_ID":"2021-018K","MEAN_ELEMENT_THEORY":"SGP4","MEAN_MOTION":"15.06378488","INCLINATION":"53.0552","LAUNCH_DATE":"2021-03-11","BSTAR":"-0.00003278500000","DECAY_DATE":null,"CLASSIFICATION_TYPE":"U","GP_ID":"195443014","REF_FRAME":"TEME","SEMIMAJOR_AXIS":"6925.414","NORAD_CAT_ID":"47796","PERIAPSIS":"545.986","TIME_SYSTEM":"UTC","ELEMENT_SET_NO":"999","MEAN_ANOMALY":"301.1722"},{"DECAY_DATE":null,"MEAN_MOTION":"15.06384167","INCLINATION":"53.0551","LAUNCH_DATE":"2021-03-11","BSTAR":"-0.00025609000000","CENTER_NAME":"EARTH","OBJECT_ID":"2021-018L","MEAN_ELEMENT_THEORY":"SGP4","PERIAPSIS":"546.209","TIME_SYSTEM":"UTC","MEAN_ANOMALY":"291.9215","ELEMENT_SET_NO":"999","SEMIMAJOR_AXIS":"6925.397","NORAD_CAT_ID":"47797","CLASSIFICATION_TYPE":"U","GP_ID":"195443766","REF_FRAME":"TEME","FILE":"3293822","OBJECT_NAME":"STARLINK-2377","SITE":"AFETR","MEAN_MOTION_DOT":"-0.00004092","RCS_SIZE":"LARGE","RA_OF_ASC_NODE":"114.4748","ECCENTRICITY":"0.00015210","ARG_OF_PERICENTER":"68.1936","PERIOD":"95.593","REV_AT_EPOCH":"5164","MEAN_MOTION_DDOT":"0.0000000000000","COUNTRY_CODE":"US","TLE_LINE1":"1 47797U 21018L   22037.68555868 -.00004092  00000-0 -25609-3 0  9993","APOAPSIS":"548.315","EPOCH":"2022-02-06T16:27:12.269952","TLE_LINE2":"2 47797  53.0551 114.4748 0001521  68.1936 291.9215 15.06384167 51642","EPHEMERIS_TYPE":"0","OBJECT_TYPE":"PAYLOAD"},{"OBJECT_ID":"2021-018M","MEAN_ELEMENT_THEORY":"SGP4","CENTER_NAME":"EARTH","DECAY_DATE":null,"MEAN_MOTION":"15.06371611","INCLINATION":"53.0543","LAUNCH_DATE":"2021-03-11","BSTAR":"-0.00009492300000","SEMIMAJOR_AXIS":"6925.436","NORAD_CAT_ID":"47798","CLASSIFICATION_TYPE":"U","GP_ID":"195443517","REF_FRAME":"TEME","MEAN_ANOMALY":"303.8394","ELEMENT_SET_NO":"999","TIME_SYSTEM":"UTC","PERIAPSIS":"546.109","ECCENTRICITY":"0.00017210","RCS_SIZE":"LARGE","RA_OF_ASC_NODE":"88.7059","FILE":"3293822","SITE":"AFETR","MEAN_MOTION_DOT":"-0.00001694","OBJECT_NAME":"STARLINK-2379","OBJECT_TYPE":"PAYLOAD","APOAPSIS":"548.492","TLE_LINE2":"2 47798  53.0543  88.7059 0001721  56.2759 303.8394 15.06371611 52029","EPOCH":"2022-02-06T20:37:19.915392","EPHEMERIS_TYPE":"0","REV_AT_EPOCH":"5202","MEAN_MOTION_DDOT":"0.0000000000000","COUNTRY_CODE":"US","TLE_LINE1":"1 47798U 21018M   22037.85925828 -.00001694  00000-0 -94923-4 0  9991","PERIOD":"95.594","ARG_OF_PERICENTER":"56.2759"}];
